[{"OBJECT_NAME":"STARLINK-5946","OBJECT_ID":"2023-042E","EPOCH":"2026-03-09T22:26:29.670432","MEAN_MOTION":15.02542872,"ECCENTRICITY":0.00012305,"INCLINATION":43.005,"RA_OF_ASC_NODE":55.0933,"ARG_OF_PERICENTER":264.5792,"MEAN_ANOMALY":95.491,"EPHEMERIS_TYPE":0,"CLASSIFICATION_TYPE":"U","NORAD_CAT_ID":55990,"ELEMENT_SET_NO":999,"REV_AT_EPOCH":16294,"BSTAR":3.2179568e-5,"MEAN_MOTION_DOT":2.31e-6,"MEAN_MOTION_DDOT":0},{"OBJECT_NAME":"NOAA 17 DEB","OBJECT_ID":"2002-032BW","EPOCH":"2026-03-08T22:40:23.580768","MEAN_MOTION":15.05196658,"ECCENTRICITY":0.00149213,"INCLINATION":98.7181,"RA_OF_ASC_NODE":121.0481,"ARG_OF_PERICENTER":217.4424,"MEAN_ANOMALY":142.5761,"EPHEMERIS_TYPE":0,"CLASSIFICATION_TYPE":"U","NORAD_CAT_ID":48737,"ELEMENT_SET_NO":999,"REV_AT_EPOCH":26108,"BSTAR":0.0055556624,"MEAN_MOTION_DOT":0.00080221,"MEAN_MOTION_DDOT":0}]
